{
  "norad_id": 59042,
  "name": "STARLINK-31202",
  "history": [
    {
      "epoch": "2026-03-28T20:00:01.999872Z",
      "apogee_km": 489.24912101075097,
      "perigee_km": 486.81396567516913,
      "latitude_deg": -25.340859181063063,
      "longitude_deg": 118.31213638886094,
      "height_km": 493.53259971008515,
      "semi_major_axis_km": 6866.168543342959,
      "eccentricity": 0.00017733,
      "inclination_deg": 43.0007,
      "raan_deg": 274.9018,
      "arg_perigee_deg": 270.6834,
      "mean_anomaly_deg": 50.7171,
      "mean_motion_rev_day": 15.25917565
    },
    {
      "epoch": "2026-03-29T04:00:01.999584Z",
      "apogee_km": 489.42163707796317,
      "perigee_km": 485.1293811772575,
      "latitude_deg": -3.763614894225457,
      "longitude_deg": 22.409140348700788,
      "height_km": 486.25384353695887,
      "semi_major_axis_km": 6865.41250912761,
      "eccentricity": 0.0003126,
      "inclination_deg": 43.0009,
      "raan_deg": 273.0168,
      "arg_perigee_deg": 304.0108,
      "mean_anomaly_deg": 50.5561,
      "mean_motion_rev_day": 15.26169628
    },
    {
      "epoch": "2026-03-30T04:00:01.999584Z",
      "apogee_km": 486.4526388811473,
      "perigee_km": 484.2247546699755,
      "latitude_deg": 42.881145562087525,
      "longitude_deg": 117.79239192581973,
      "height_km": 489.53277570556685,
      "semi_major_axis_km": 6863.475696775561,
      "eccentricity": 0.0001623,
      "inclination_deg": 43.0009,
      "raan_deg": 267.3843,
      "arg_perigee_deg": 283.9385,
      "mean_anomaly_deg": 171.9055,
      "mean_motion_rev_day": 15.26815681
    },
    {
      "epoch": "2026-03-30T12:00:02.000160Z",
      "apogee_km": 484.76587797264256,
      "perigee_km": 482.390077778703,
      "latitude_deg": 31.45824081909665,
      "longitude_deg": 36.876372628796936,
      "height_km": 485.28881366665786,
      "semi_major_axis_km": 6861.714977875673,
      "eccentricity": 0.00017312,
      "inclination_deg": 43.0007,
      "raan_deg": 265.5009,
      "arg_perigee_deg": 269.1123,
      "mean_anomaly_deg": 221.2061,
      "mean_motion_rev_day": 15.27403391
    },
    {
      "epoch": "2026-03-30T19:16:48.098208Z",
      "apogee_km": 486.4420295303571,
      "perigee_km": 483.31702358515486,
      "latitude_deg": 2.7357005292893052e-05,
      "longitude_deg": 146.40139290525372,
      "height_km": 484.61630660396526,
      "semi_major_axis_km": 6863.016526557756,
      "eccentricity": 0.00022767,
      "inclination_deg": 43.0026,
      "raan_deg": 263.7916,
      "arg_perigee_deg": 271.5017,
      "mean_anomaly_deg": 88.5574,
      "mean_motion_rev_day": 15.26968911
    },
    {
      "epoch": "2026-03-31T20:23:24.532800Z",
      "apogee_km": 485.01543040325305,
      "perigee_km": 482.13213953140894,
      "latitude_deg": 5.639595518775182e-06,
      "longitude_deg": 122.80832435290131,
      "height_km": 483.8836320843807,
      "semi_major_axis_km": 6861.71078496733,
      "eccentricity": 0.0002101,
      "inclination_deg": 43.0001,
      "raan_deg": 257.8816,
      "arg_perigee_deg": 248.3123,
      "mean_anomaly_deg": 111.7505,
      "mean_motion_rev_day": 15.27404791
    },
    {
      "epoch": "2026-04-01T20:00:01.999008Z",
      "apogee_km": 484.243704175713,
      "perigee_km": 481.92186740020225,
      "latitude_deg": 11.3015467568919,
      "longitude_deg": 134.4343045537218,
      "height_km": 482.6219209402763,
      "semi_major_axis_km": 6861.219785787957,
      "eccentricity": 0.0001692,
      "inclination_deg": 43.0011,
      "raan_deg": 252.3282,
      "arg_perigee_deg": 259.6906,
      "mean_anomaly_deg": 116.9746,
      "mean_motion_rev_day": 15.27568749
    },
    {
      "epoch": "2026-04-02T20:00:01.999008Z",
      "apogee_km": 484.1614685179402,
      "perigee_km": 482.26910755690005,
      "latitude_deg": 35.23979371878435,
      "longitude_deg": -113.38735560546614,
      "height_km": 485.5225947155318,
      "semi_major_axis_km": 6861.35228803742,
      "eccentricity": 0.0001379,
      "inclination_deg": 43.0014,
      "raan_deg": 246.6802,
      "arg_perigee_deg": 270.7081,
      "mean_anomaly_deg": 211.8187,
      "mean_motion_rev_day": 15.275245
    },
    {
      "epoch": "2026-04-02T22:00:01.999584Z",
      "apogee_km": 484.5620688361969,
      "perigee_km": 481.7765157076601,
      "latitude_deg": -26.94435615036831,
      "longitude_deg": -62.2341079853636,
      "height_km": 489.212879039,
      "semi_major_axis_km": 6861.306292271928,
      "eccentricity": 0.00020299,
      "inclination_deg": 43.0012,
      "raan_deg": 246.209,
      "arg_perigee_deg": 275.4887,
      "mean_anomaly_deg": 305.8662,
      "mean_motion_rev_day": 15.2753986
    },
    {
      "epoch": "2026-04-03T19:00:21.544128Z",
      "apogee_km": 484.0992174457306,
      "perigee_km": 482.1053413111431,
      "latitude_deg": -1.695386955509818e-05,
      "longitude_deg": 124.05316578805014,
      "height_km": 482.83773814008646,
      "semi_major_axis_km": 6861.239279378437,
      "eccentricity": 0.0001453,
      "inclination_deg": 43.0015,
      "raan_deg": 241.2641,
      "arg_perigee_deg": 272.3836,
      "mean_anomaly_deg": 87.6849,
      "mean_motion_rev_day": 15.27562239
    },
    {
      "epoch": "2026-04-04T20:06:51.114240Z",
      "apogee_km": 483.90231792071245,
      "perigee_km": 481.9002669469801,
      "latitude_deg": -3.610748944000682e-05,
      "longitude_deg": 100.4908780454479,
      "height_km": 482.4858158962067,
      "semi_major_axis_km": 6861.038292433846,
      "eccentricity": 0.0001459,
      "inclination_deg": 43.0014,
      "raan_deg": 235.3562,
      "arg_perigee_deg": 281.0806,
      "mean_anomaly_deg": 78.9881,
      "mean_motion_rev_day": 15.27629362
    },
    {
      "epoch": "2026-04-05T13:22:36.092352Z",
      "apogee_km": 484.0248243619535,
      "perigee_km": 482.23362220170293,
      "latitude_deg": -8.279604778859989e-06,
      "longitude_deg": -163.21744766547192,
      "height_km": 483.0131059854067,
      "semi_major_axis_km": 6861.2662232818275,
      "eccentricity": 0.00013053,
      "inclination_deg": 43.001,
      "raan_deg": 231.2942,
      "arg_perigee_deg": 263.1275,
      "mean_anomaly_deg": 96.9428,
      "mean_motion_rev_day": 15.27553241
    },
    {
      "epoch": "2026-04-05T19:39:14.245632Z",
      "apogee_km": 484.00458857162903,
      "perigee_km": 482.2426168488528,
      "latitude_deg": 4.818855639393757e-06,
      "longitude_deg": 100.8893957294446,
      "height_km": 483.08924718031585,
      "semi_major_axis_km": 6861.260602710241,
      "eccentricity": 0.0001284,
      "inclination_deg": 43.0011,
      "raan_deg": 229.8178,
      "arg_perigee_deg": 257.6141,
      "mean_anomaly_deg": 102.4567,
      "mean_motion_rev_day": 15.27555118
    },
    {
      "epoch": "2026-04-05T19:39:14.246496Z",
      "apogee_km": 484.00472579684174,
      "perigee_km": 482.242479623641,
      "latitude_deg": 6.354233897709518e-06,
      "longitude_deg": 100.88939375691712,
      "height_km": 483.08927661043765,
      "semi_major_axis_km": 6861.260602710241,
      "eccentricity": 0.00012842,
      "inclination_deg": 43.0011,
      "raan_deg": 229.8178,
      "arg_perigee_deg": 257.6141,
      "mean_anomaly_deg": 102.4567,
      "mean_motion_rev_day": 15.27555118
    },
    {
      "epoch": "2026-04-07T09:18:57.966624Z",
      "apogee_km": 483.8975590068321,
      "perigee_km": 482.06495432047814,
      "latitude_deg": 6.034461124417483e-05,
      "longitude_deg": -114.4527491239028,
      "height_km": 483.1336854426532,
      "semi_major_axis_km": 6861.118256663655,
      "eccentricity": 0.00013355,
      "inclination_deg": 43.0008,
      "raan_deg": 220.9545,
      "arg_perigee_deg": 245.7836,
      "mean_anomaly_deg": 114.2877,
      "mean_motion_rev_day": 15.27602656
    },
    {
      "epoch": "2026-04-07T17:09:44.767872Z",
      "apogee_km": 483.90111828276986,
      "perigee_km": 482.04312993196163,
      "latitude_deg": 6.105474284793703e-06,
      "longitude_deg": 125.68384940211956,
      "height_km": 483.1518479008249,
      "semi_major_axis_km": 6861.1091241073655,
      "eccentricity": 0.0001354,
      "inclination_deg": 43.0008,
      "raan_deg": 219.1084,
      "arg_perigee_deg": 244.281,
      "mean_anomaly_deg": 115.7902,
      "mean_motion_rev_day": 15.27605706
    },
    {
      "epoch": "2026-04-08T08:51:19.020960Z",
      "apogee_km": 483.98452070780695,
      "perigee_km": 482.166025007009,
      "latitude_deg": -3.657298362848858e-05,
      "longitude_deg": -114.04690165819235,
      "height_km": 483.09992973315644,
      "semi_major_axis_km": 6861.212272857408,
      "eccentricity": 0.00013252,
      "inclination_deg": 42.9988,
      "raan_deg": 215.4149,
      "arg_perigee_deg": 254.1572,
      "mean_anomaly_deg": 105.9133,
      "mean_motion_rev_day": 15.27571258
    },
    {
      "epoch": "2026-04-09T14:40:17.241888Z",
      "apogee_km": 483.6151078398352,
      "perigee_km": 482.3677546910303,
      "latitude_deg": 7.889297640052397e-06,
      "longitude_deg": 150.4689481413176,
      "height_km": 482.9664677284692,
      "semi_major_axis_km": 6861.1284312654325,
      "eccentricity": 9.09e-05,
      "inclination_deg": 42.997,
      "raan_deg": 208.3978,
      "arg_perigee_deg": 251.3769,
      "mean_anomaly_deg": 108.6984,
      "mean_motion_rev_day": 15.27599258
    },
    {
      "epoch": "2026-04-10T06:21:51.210720Z",
      "apogee_km": 483.7793730948715,
      "perigee_km": 482.355535946469,
      "latitude_deg": 6.607603347117265e-06,
      "longitude_deg": -89.26037091614201,
      "height_km": 482.8892056814094,
      "semi_major_axis_km": 6861.20445452067,
      "eccentricity": 0.00010376,
      "inclination_deg": 42.9973,
      "raan_deg": 204.7045,
      "arg_perigee_deg": 266.3221,
      "mean_anomaly_deg": 93.7512,
      "mean_motion_rev_day": 15.27573869
    }
  ]
}